ONEWEB-0116             
1 48046U 21025E   24262.51163663  .00000341  00000+0  90001-3 0  9999
2 48046  87.8854  86.8864 0001573  92.5310 267.5999 13.13467881170074
ONEWEB-0150             
1 48047U 21025F   24263.47652678  .00002261  00000+0  61531-2 0  9993
2 48047  87.8852  86.7073 0001739  82.8468 277.2859 13.13490056170099
ONEWEB-0107             
1 48048U 21025G   24263.47816506 -.00001463  00000+0 -40417-2 0  9991
2 48048  87.8848  86.7042 0001900  81.7089 278.4256 13.13456645170076
ONEWEB-0101             
1 48049U 21025H   24263.06074504  .00000180  00000+0  45691-3 0  9994
2 48049  87.8853  86.8098 0001808  89.8316 270.3020 13.13467225169999
ONEWEB-0113             
1 48050U 21025J   24263.49559299  .00000380  00000+0  10061-2 0  9996
2 48050  87.8848  86.7036 0001747  93.9519 266.1810 13.13469766170139
ONEWEB-0112             
1 48051U 21025K   24263.02583598  .00000412  00000+0  10935-2 0  9991
2 48051  87.8855  86.7908 0001443  85.4509 274.6785 13.13470870170092
ONEWEB-0156             
1 48052U 21025L   24263.03536163  .00000377  00000+0  99795-3 0  9991
2 48052  87.8850  86.7912 0001722  87.7751 272.3576 13.13468306170079
ONEWEB-0161             
1 48053U 21025M   24263.08455675 -.00000276  00000+0 -78990-3 0  9999
2 48053  87.8853  86.7912 0001925  87.9504 272.1846 13.13469240170016
